STARLINK-2475           
1 48133U 21027AT  26068.54712537  .00014323  00000+0  49460-3 0  9995
2 48133  53.1606 165.9904 0001148 102.8051 257.3078 15.30212263272498
TEVEL2-3                
1 63218U 25052J   26068.64540225  .00020365  00000+0  69446-3 0  9991
2 63218  97.3994 324.7775 0004761 105.7353 254.4413 15.30377031 54855
